[{"OBJECT_NAME":"LEMUR-2 FIKRETDENGIZ","OBJECT_ID":"2026-004A","EPOCH":"2026-03-09T22:36:00.737280","MEAN_MOTION":14.87429813,"ECCENTRICITY":0.00106959,"INCLINATION":97.8024,"RA_OF_ASC_NODE":69.0919,"ARG_OF_PERICENTER":104.3025,"MEAN_ANOMALY":255.938,"EPHEMERIS_TYPE":0,"CLASSIFICATION_TYPE":"U","NORAD_CAT_ID":67363,"ELEMENT_SET_NO":999,"REV_AT_EPOCH":852,"BSTAR":0.00076976937,"MEAN_MOTION_DOT":6.923e-5,"MEAN_MOTION_DDOT":0},{"OBJECT_NAME":"FENGYUN 1C DEB","OBJECT_ID":"1999-025CZV","EPOCH":"2026-03-07T07:47:36.128544","MEAN_MOTION":14.79534889,"ECCENTRICITY":0.00380344,"INCLINATION":99.5723,"RA_OF_ASC_NODE":250.9292,"ARG_OF_PERICENTER":252.8564,"MEAN_ANOMALY":230.4728,"EPHEMERIS_TYPE":0,"CLASSIFICATION_TYPE":"U","NORAD_CAT_ID":32409,"ELEMENT_SET_NO":999,"REV_AT_EPOCH":60088,"BSTAR":0.0037809327,"MEAN_MOTION_DOT":0.00028679,"MEAN_MOTION_DDOT":0}]
